start=new Date('2021-12-02T00:00:00.000Z').valueOf();
sats=[{"MEAN_ANOMALY":"300.8565","MEAN_MOTION_DDOT":"0.0000000000000","REF_FRAME":"TEME","TLE_LINE2":"2 48333  53.0537 261.0178 0002120  59.2633 300.8565 15.06400117 33620","EPOCH":"2021-12-01T12:26:01.060512","MEAN_MOTION_DOT":"0.00001403","ECCENTRICITY":"0.00021200","ARG_OF_PERICENTER":"59.2633","BSTAR":"0.00011307000000","ELEMENT_SET_NO":"999","RA_OF_ASC_NODE":"261.0178","SITE":"AFETR","COUNTRY_CODE":"US","TLE_LINE1":"1 48333U 21036BK  21335.51806783  .00001403  00000-0  11307-3 0  9998","MEAN_MOTION":"15.06400117","NORAD_CAT_ID":"48333","INCLINATION":"53.0537","CENTER_NAME":"EARTH","CLASSIFICATION_TYPE":"U","TIME_SYSTEM":"UTC","LAUNCH_DATE":"2021-04-29","EPHEMERIS_TYPE":"0","OBJECT_NAME":"STARLINK-2518","APOAPSIS":"548.681","MEAN_ELEMENT_THEORY":"SGP4","OBJECT_TYPE":"PAYLOAD","OBJECT_ID":"2021-036BK","GP_ID":"190864322","PERIAPSIS":"545.745","DECAY_DATE":null,"FILE":"3229242","SEMIMAJOR_AXIS":"6925.348","PERIOD":"95.592","REV_AT_EPOCH":"3362","RCS_SIZE":"LARGE"},{"RA_OF_ASC_NODE":"261.0356","ELEMENT_SET_NO":"999","SITE":"AFETR","TLE_LINE1":"1 48334U 21036BL  21335.51438297 -.00000695  00000-0 -27752-4 0  9996","COUNTRY_CODE":"US","ARG_OF_PERICENTER":"70.1723","ECCENTRICITY":"0.00019720","BSTAR":"-0.00002775200000","REF_FRAME":"TEME","TLE_LINE2":"2 48334  53.0540 261.0356 0001972  70.1723 289.9479 15.06396043 33037","EPOCH":"2021-12-01T12:20:42.688608","MEAN_MOTION_DOT":"-0.00000695","MEAN_ANOMALY":"289.9479","MEAN_MOTION_DDOT":"0.0000000000000","GP_ID":"190859744","PERIAPSIS":"545.860","REV_AT_EPOCH":"3303","RCS_SIZE":"LARGE","FILE":"3229140","DECAY_DATE":null,"PERIOD":"95.592","SEMIMAJOR_AXIS":"6925.361","OBJECT_NAME":"STARLINK-2470","OBJECT_TYPE":"PAYLOAD","MEAN_ELEMENT_THEORY":"SGP4","APOAPSIS":"548.591","OBJECT_ID":"2021-036BL","CENTER_NAME":"EARTH","LAUNCH_DATE":"2021-04-29","CLASSIFICATION_TYPE":"U","TIME_SYSTEM":"UTC","EPHEMERIS_TYPE":"0","NORAD_CAT_ID":"48334","MEAN_MOTION":"15.06396043","INCLINATION":"53.0540"},{"PERIAPSIS":"545.711","GP_ID":"190866796","REV_AT_EPOCH":"3367","RCS_SIZE":"LARGE","SEMIMAJOR_AXIS":"6925.351","FILE":"3229369","DECAY_DATE":null,"PERIOD":"95.592","OBJECT_TYPE":"PAYLOAD","APOAPSIS":"548.721","MEAN_ELEMENT_THEORY":"SGP4","OBJECT_NAME":"STARLINK-2441","OBJECT_ID":"2021-036BM","LAUNCH_DATE":"2021-04-29","CLASSIFICATION_TYPE":"U","TIME_SYSTEM":"UTC","CENTER_NAME":"EARTH","EPHEMERIS_TYPE":"0","MEAN_MOTION":"15.06399263","NORAD_CAT_ID":"48335","INCLINATION":"53.0552","RA_OF_ASC_NODE":"259.5639","ELEMENT_SET_NO":"999","TLE_LINE1":"1 48335U 21036BM  21335.84242818  .00000477  00000-0  50959-4 0  9996","COUNTRY_CODE":"US","SITE":"AFETR","ECCENTRICITY":"0.00021730","ARG_OF_PERICENTER":"66.6815","BSTAR":"0.00005095900000","EPOCH":"2021-12-01T20:13:05.794752","TLE_LINE2":"2 48335  53.0552 259.5639 0002173  66.6815 293.4403 15.06399263 33677","REF_FRAME":"TEME","MEAN_MOTION_DOT":"0.00000477","MEAN_MOTION_DDOT":"0.0000000000000","MEAN_ANOMALY":"293.4403"},{"MEAN_ELEMENT_THEORY":"SGP4","APOAPSIS":"548.645","OBJECT_TYPE":"PAYLOAD","OBJECT_NAME":"STARLINK-2613","OBJECT_ID":"2021-038A","PERIAPSIS":"545.850","GP_ID":"190861497","FILE":"3229140","SEMIMAJOR_AXIS":"6925.383","DECAY_DATE":null,"PERIOD":"95.593","REV_AT_EPOCH":"3202","RCS_SIZE":"LARGE","MEAN_MOTION":"15.06388802","NORAD_CAT_ID":"48353","INCLINATION":"53.0539","TIME_SYSTEM":"UTC","CLASSIFICATION_TYPE":"U","LAUNCH_DATE":"2021-05-04","CENTER_NAME":"EARTH","EPHEMERIS_TYPE":"0","ARG_OF_PERICENTER":"90.5175","ECCENTRICITY":"0.00020180","BSTAR":"-0.00003402800000","RA_OF_ASC_NODE":"161.0266","ELEMENT_SET_NO":"999","COUNTRY_CODE":"US","TLE_LINE1":"1 48353U 21038A   21335.51624286 -.00000788  00000-0 -34028-4 0  9991","SITE":"AFETR","MEAN_MOTION_DDOT":"0.0000000000000","MEAN_ANOMALY":"269.6045","TLE_LINE2":"2 48353  53.0539 161.0266 0002018  90.5175 269.6045 15.06388802 32020","EPOCH":"2021-12-01T12:23:23.383104","REF_FRAME":"TEME","MEAN_MOTION_DOT":"-0.00000788"},{"MEAN_MOTION_DDOT":"0.0000000000000","MEAN_ANOMALY":"278.8653","TLE_LINE2":"2 48354  53.0547 161.0326 0002124  81.2576 278.8653 15.06393083 32021","EPOCH":"2021-12-01T12:18:04.752864","REF_FRAME":"TEME","MEAN_MOTION_DOT":"0.00000692","ARG_OF_PERICENTER":"81.2576","ECCENTRICITY":"0.00021240","BSTAR":"0.00006536800000","ELEMENT_SET_NO":"999","RA_OF_ASC_NODE":"161.0326","TLE_LINE1":"1 48354U 21038B   21335.51255501  .00000692  00000-0  65368-4 0  9995","COUNTRY_CODE":"US","SITE":"AFETR","NORAD_CAT_ID":"48354","MEAN_MOTION":"15.06393083","INCLINATION":"53.0547","LAUNCH_DATE":"2021-05-04","TIME_SYSTEM":"UTC","CLASSIFICATION_TYPE":"U","CENTER_NAME":"EARTH","EPHEMERIS_TYPE":"0","OBJECT_TYPE":"PAYLOAD","APOAPSIS":"548.706","MEAN_ELEMENT_THEORY":"SGP4","OBJECT_NAME":"STARLINK-2674","OBJECT_ID":"2021-038B","PERIAPSIS":"545.764","GP_ID":"190859746","REV_AT_EPOCH":"3202","RCS_SIZE":"LARGE","DECAY_DATE":null,"FILE":"3229140","PERIOD":"95.593","SEMIMAJOR_AXIS":"6925.370"},{"CENTER_NAME":"EARTH","CLASSIFICATION_TYPE":"U","TIME_SYSTEM":"UTC","LAUNCH_DATE":"2021-05-04","EPHEMERIS_TYPE":"0","MEAN_MOTION":"15.06395315","NORAD_CAT_ID":"48355","INCLINATION":"53.0548","GP_ID":"190859996","PERIAPSIS":"545.666","SEMIMAJOR_AXIS":"6925.363","FILE":"3229140","DECAY_DATE":null,"PERIOD":"95.592","REV_AT_EPOCH":"3198","RCS_SIZE":"LARGE","OBJECT_NAME":"STARLINK-2635","MEAN_ELEMENT_THEORY":"SGP4","APOAPSIS":"548.790","OBJECT_TYPE":"PAYLOAD","OBJECT_ID":"2021-038C","REF_FRAME":"TEME","TLE_LINE2":"2 48355  53.0548 162.2497 0002255  85.2154 274.9092 15.06395315 31984","EPOCH":"2021-12-01T05:50:36.883680","MEAN_MOTION_DOT":"0.00001081","MEAN_ANOMALY":"274.9092","MEAN_MOTION_DDOT":"0.0000000000000","ELEMENT_SET_NO":"999","RA_OF_ASC_NODE":"162.2497","SITE":"AFETR","COUNTRY_CODE":"US","TLE_LINE1":"1 48355U 21038C   21335.24348245  .00001081  00000-0  91461-4 0  9990","ARG_OF_PERICENTER":"85.2154","ECCENTRICITY":"0.00022550","BSTAR":"0.00009146100000"},{"ELEMENT_SET_NO":"999","RA_OF_ASC_NODE":"161.0546","SITE":"AFETR","TLE_LINE1":"1 48356U 21038D   21335.50518672  .00000913  00000-0  80198-4 0  9991","COUNTRY_CODE":"US","ECCENTRICITY":"0.00025140","ARG_OF_PERICENTER":"81.3656","BSTAR":"0.00008019800000","REF_FRAME":"TEME","TLE_LINE2":"2 48356  53.0601 161.0546 0002514  81.3656 278.7617 15.06392833 32022","EPOCH":"2021-12-01T12:07:28.132608","MEAN_MOTION_DOT":"0.00000913","MEAN_ANOMALY":"278.7617","MEAN_MOTION_DDOT":"0.0000000000000","GP_ID":"190860747","PERIAPSIS":"545.494","REV_AT_EPOCH":"3202","RCS_SIZE":"LARGE","DECAY_DATE":null,"FILE":"3229140","SEMIMAJOR_AXIS":"6925.371","PERIOD":"95.593","OBJECT_NAME":"STARLINK-2637","OBJECT_TYPE":"PAYLOAD","APOAPSIS":"548.977","MEAN_ELEMENT_THEORY":"SGP4","OBJECT_ID":"2021-038D","CENTER_NAME":"EARTH","LAUNCH_DATE":"2021-05-04","CLASSIFICATION_TYPE":"U","TIME_SYSTEM":"UTC","EPHEMERIS_TYPE":"0","NORAD_CAT_ID":"48356","MEAN_MOTION":"15.06392833","INCLINATION":"53.0601"},{"ELEMENT_SET_NO":"999","RA_OF_ASC_NODE":"162.2727","SITE":"AFETR","TLE_LINE1":"1 48357U 21038E   21335.23610692 -.00001044  00000-0 -51218-4 0  9996","COUNTRY_CODE":"US","ARG_OF_PERICENTER":"88.3786","ECCENTRICITY":"0.00021930","BSTAR":"-0.00005121800000","REF_FRAME":"TEME","EPOCH":"2021-12-01T05:39:59.637888","TLE_LINE2":"2 48357  53.0546 162.2727 0002193  88.3786 271.7454 15.06388991 31985","MEAN_MOTION_DOT":"-0.00001044","MEAN_ANOMALY":"271.7454","MEAN_MOTION_DDOT":"0.0000000000000","GP_ID":"190860998","PERIAPSIS":"545.729","REV_AT_EPOCH":"3198","RCS_SIZE":"LARGE","SEMIMAJOR_AXIS":"6925.382","FILE":"3229140","DECAY_DATE":null,"PERIOD":"95.593","OBJECT_NAME":"STARLINK-2636","OBJECT_TYPE":"PAYLOAD","APOAPSIS":"548.766","MEAN_ELEMENT_THEORY":"SGP4","OBJECT_ID":"2021-038E","CENTER_NAME":"EARTH","LAUNCH_DATE":"2021-05-04","CLASSIFICATION_TYPE":"U","TIME_SYSTEM":"UTC","EPHEMERIS_TYPE":"0","MEAN_MOTION":"15.06388991","NORAD_CAT_ID":"48357","INCLINATION":"53.0546"},{"COUNTRY_CODE":"US","TLE_LINE1":"1 48358U 21038F   21335.49781213  .00000999  00000-0  86006-4 0  9992","SITE":"AFETR","RA_OF_ASC_NODE":"161.0963","ELEMENT_SET_NO":"999","BSTAR":"0.00008600600000","ARG_OF_PERICENTER":"84.7524","ECCENTRICITY":"0.00022330","MEAN_MOTION_DOT":"0.00000999","TLE_LINE2":"2 48358  53.0533 161.0963 0002233  84.7524 275.3720 15.06393965 32014","EPOCH":"2021-12-01T11:56:50.968032","REF_FRAME":"TEME","MEAN_MOTION_DDOT":"0.0000000000000","MEAN_ANOMALY":"275.3720","FILE":"3229140","DECAY_DATE":null,"SEMIMAJOR_AXIS":"6925.367","PERIOD":"95.593","RCS_SIZE":"LARGE","REV_AT_EPOCH":"3201","PERIAPSIS":"545.686","GP_ID":"190860246","OBJECT_ID":"2021-038F","MEAN_ELEMENT_THEORY":"SGP4","APOAPSIS":"548.778","OBJECT_TYPE":"PAYLOAD","OBJECT_NAME":"STARLINK-2624","EPHEMERIS_TYPE":"0","TIME_SYSTEM":"UTC","CLASSIFICATION_TYPE":"U","LAUNCH_DATE":"2021-05-04","CENTER_NAME":"EARTH","INCLINATION":"53.0533","MEAN_MOTION":"15.06393965","NORAD_CAT_ID":"48358"},{"MEAN_MOTION_DOT":"-0.00000973","TLE_LINE2":"2 48359  53.0548 159.9232 0002110  81.6668 278.4561 15.06392658 33291","EPOCH":"2021-12-01T18:13:41.661408","REF_FRAME":"TEME","MEAN_MOTION_DDOT":"0.0000000000000","MEAN_ANOMALY":"278.4561","TLE_LINE1":"1 48359U 21038G   21335.75950997 -.00000973  00000-0 -46408-4 0  9995","COUNTRY_CODE":"US","SITE":"AFETR","ELEMENT_SET_NO":"999","RA_OF_ASC_NODE":"159.9232","BSTAR":"-0.00004640800000","ARG_OF_PERICENTER":"81.6668","ECCENTRICITY":"0.00021100","EPHEMERIS_TYPE":"0","LAUNCH_DATE":"2021-05-04","CLASSIFICATION_TYPE":"U","TIME_SYSTEM":"UTC","CENTER_NAME":"EARTH","INCLINATION":"53.0548","MEAN_MOTION":"15.06392658","NORAD_CAT_ID":"48359","REV_AT_EPOCH":"3329","RCS_SIZE":"LARGE","DECAY_DATE":null,"FILE":"3229251","PERIOD":"95.593","SEMIMAJOR_AXIS":"6925.371","PERIAPSIS":"545.775","GP_ID":"190864697","OBJECT_ID":"2021-038G","OBJECT_TYPE":"PAYLOAD","APOAPSIS":"548.697","MEAN_ELEMENT_THEORY":"SGP4","OBJECT_NAME":"STARLINK-2628"}];
